KUIPER-00035            
1 63748U 25088AA  25223.58334491 -.00010074  00000+0 -10847-2 0  9997
2 63748  51.9064 323.3116 0005780 103.6931 327.9189 14.87158448  4415
KUIPER-00037            
1 63749U 25088AB  25223.58334491 -.00025947  00000+0 -27919-2 0  9991
2 63749  51.8957 322.3740 0007631  50.9521 350.2665 14.87860421  5683
KUIPER-00038            
1 63750U 25088AC  25223.58334491 -.00857118  00000+0 -36923-1 0  9990
2 63750  51.8789 312.8928 0005199 106.4639 320.3400 15.24858989  1672
KUIPER-00039            
1 64500U 25134A   25223.35051974  .00024797  00000+0  71804-3 0  9999
2 64500  51.8683  95.4054 0007403 286.8961  73.1213 15.35410498  8756
KUIPER-00040            
1 64501U 25134B   25223.38184950  .00014935  00000+0  80343-3 0  9995
2 64501  51.8774  97.7655 0013207 294.7164  65.2438 15.14982459  8728
KUIPER-00041            
1 64502U 25134C   25223.58334491 -.01091754  00000+0 -73301-1 0  9996
2 64502  51.8790  97.2421 0010033 292.4484 198.7167 15.09184370  5422
KUIPER-00042            
1 64503U 25134D   25223.58334491  .00017915  00000+0  92981-3 0  9998
2 64503  51.8776  95.6981 0011268 296.1498 294.8996 15.16137433  5320
KUIPER-00043            
1 64504U 25134E   25223.58334491 -.00524443  00000+0 -17082-1 0  9997
2 64504  51.8696  94.3609 0008483 294.4956 240.0766 15.33442141  5669
