<?xml version="1.0" encoding="UTF-8"?>
<ndm xmlns:xsi="http://www.w3.org/2001/XMLSchema-instance" xsi:noNamespaceSchemaLocation="https://sanaregistry.org/r/ndmxml_unqualified/ndmxml-2.0.0-master-2.0.xsd">
<omm id="CCSDS_OMM_VERS" version="2.0">
<header><CREATION_DATE/><ORIGINATOR/></header><body><segment><metadata><OBJECT_NAME>KUIPER-00035</OBJECT_NAME><OBJECT_ID>2025-088AA</OBJECT_ID><CENTER_NAME>EARTH</CENTER_NAME><REF_FRAME>TEME</REF_FRAME><TIME_SYSTEM>UTC</TIME_SYSTEM><MEAN_ELEMENT_THEORY>SGP4</MEAN_ELEMENT_THEORY></metadata><data><meanElements><EPOCH>2025-08-11T14:00:01.000224</EPOCH><MEAN_MOTION>14.87158448</MEAN_MOTION><ECCENTRICITY>.000578</ECCENTRICITY><INCLINATION>51.9064</INCLINATION><RA_OF_ASC_NODE>323.3116</RA_OF_ASC_NODE><ARG_OF_PERICENTER>103.6931</ARG_OF_PERICENTER><MEAN_ANOMALY>327.9189</MEAN_ANOMALY></meanElements><tleParameters><EPHEMERIS_TYPE>0</EPHEMERIS_TYPE><CLASSIFICATION_TYPE>U</CLASSIFICATION_TYPE><NORAD_CAT_ID>63748</NORAD_CAT_ID><ELEMENT_SET_NO>999</ELEMENT_SET_NO><REV_AT_EPOCH>441</REV_AT_EPOCH><BSTAR>-.10847E-2</BSTAR><MEAN_MOTION_DOT>-.10074E-3</MEAN_MOTION_DOT><MEAN_MOTION_DDOT>0</MEAN_MOTION_DDOT></tleParameters></data></segment></body></omm>
<omm id="CCSDS_OMM_VERS" version="2.0">
<header><CREATION_DATE/><ORIGINATOR/></header><body><segment><metadata><OBJECT_NAME>KUIPER-00037</OBJECT_NAME><OBJECT_ID>2025-088AB</OBJECT_ID><CENTER_NAME>EARTH</CENTER_NAME><REF_FRAME>TEME</REF_FRAME><TIME_SYSTEM>UTC</TIME_SYSTEM><MEAN_ELEMENT_THEORY>SGP4</MEAN_ELEMENT_THEORY></metadata><data><meanElements><EPOCH>2025-08-11T14:00:01.000224</EPOCH><MEAN_MOTION>14.87860421</MEAN_MOTION><ECCENTRICITY>.0007631</ECCENTRICITY><INCLINATION>51.8957</INCLINATION><RA_OF_ASC_NODE>322.3740</RA_OF_ASC_NODE><ARG_OF_PERICENTER>50.9521</ARG_OF_PERICENTER><MEAN_ANOMALY>350.2665</MEAN_ANOMALY></meanElements><tleParameters><EPHEMERIS_TYPE>0</EPHEMERIS_TYPE><CLASSIFICATION_TYPE>U</CLASSIFICATION_TYPE><NORAD_CAT_ID>63749</NORAD_CAT_ID><ELEMENT_SET_NO>999</ELEMENT_SET_NO><REV_AT_EPOCH>568</REV_AT_EPOCH><BSTAR>-.27919E-2</BSTAR><MEAN_MOTION_DOT>-.25947E-3</MEAN_MOTION_DOT><MEAN_MOTION_DDOT>0</MEAN_MOTION_DDOT></tleParameters></data></segment></body></omm>
<omm id="CCSDS_OMM_VERS" version="2.0">
<header><CREATION_DATE/><ORIGINATOR/></header><body><segment><metadata><OBJECT_NAME>KUIPER-00038</OBJECT_NAME><OBJECT_ID>2025-088AC</OBJECT_ID><CENTER_NAME>EARTH</CENTER_NAME><REF_FRAME>TEME</REF_FRAME><TIME_SYSTEM>UTC</TIME_SYSTEM><MEAN_ELEMENT_THEORY>SGP4</MEAN_ELEMENT_THEORY></metadata><data><meanElements><EPOCH>2025-08-11T14:00:01.000224</EPOCH><MEAN_MOTION>15.24858989</MEAN_MOTION><ECCENTRICITY>.0005199</ECCENTRICITY><INCLINATION>51.8789</INCLINATION><RA_OF_ASC_NODE>312.8928</RA_OF_ASC_NODE><ARG_OF_PERICENTER>106.4639</ARG_OF_PERICENTER><MEAN_ANOMALY>320.3400</MEAN_ANOMALY></meanElements><tleParameters><EPHEMERIS_TYPE>0</EPHEMERIS_TYPE><CLASSIFICATION_TYPE>U</CLASSIFICATION_TYPE><NORAD_CAT_ID>63750</NORAD_CAT_ID><ELEMENT_SET_NO>999</ELEMENT_SET_NO><REV_AT_EPOCH>167</REV_AT_EPOCH><BSTAR>-.36923E-1</BSTAR><MEAN_MOTION_DOT>-.857118E-2</MEAN_MOTION_DOT><MEAN_MOTION_DDOT>0</MEAN_MOTION_DDOT></tleParameters></data></segment></body></omm>
<omm id="CCSDS_OMM_VERS" version="2.0">
<header><CREATION_DATE/><ORIGINATOR/></header><body><segment><metadata><OBJECT_NAME>KUIPER-00039</OBJECT_NAME><OBJECT_ID>2025-134A</OBJECT_ID><CENTER_NAME>EARTH</CENTER_NAME><REF_FRAME>TEME</REF_FRAME><TIME_SYSTEM>UTC</TIME_SYSTEM><MEAN_ELEMENT_THEORY>SGP4</MEAN_ELEMENT_THEORY></metadata><data><meanElements><EPOCH>2025-08-11T08:24:44.905536</EPOCH><MEAN_MOTION>15.35410498</MEAN_MOTION><ECCENTRICITY>.0007403</ECCENTRICITY><INCLINATION>51.8683</INCLINATION><RA_OF_ASC_NODE>95.4054</RA_OF_ASC_NODE><ARG_OF_PERICENTER>286.8961</ARG_OF_PERICENTER><MEAN_ANOMALY>73.1213</MEAN_ANOMALY></meanElements><tleParameters><EPHEMERIS_TYPE>0</EPHEMERIS_TYPE><CLASSIFICATION_TYPE>U</CLASSIFICATION_TYPE><NORAD_CAT_ID>64500</NORAD_CAT_ID><ELEMENT_SET_NO>999</ELEMENT_SET_NO><REV_AT_EPOCH>875</REV_AT_EPOCH><BSTAR>.71804E-3</BSTAR><MEAN_MOTION_DOT>.24797E-3</MEAN_MOTION_DOT><MEAN_MOTION_DDOT>0</MEAN_MOTION_DDOT></tleParameters></data></segment></body></omm>
<omm id="CCSDS_OMM_VERS" version="2.0">
<header><CREATION_DATE/><ORIGINATOR/></header><body><segment><metadata><OBJECT_NAME>KUIPER-00040</OBJECT_NAME><OBJECT_ID>2025-134B</OBJECT_ID><CENTER_NAME>EARTH</CENTER_NAME><REF_FRAME>TEME</REF_FRAME><TIME_SYSTEM>UTC</TIME_SYSTEM><MEAN_ELEMENT_THEORY>SGP4</MEAN_ELEMENT_THEORY></metadata><data><meanElements><EPOCH>2025-08-11T09:09:51.796800</EPOCH><MEAN_MOTION>15.14982459</MEAN_MOTION><ECCENTRICITY>.0013207</ECCENTRICITY><INCLINATION>51.8774</INCLINATION><RA_OF_ASC_NODE>97.7655</RA_OF_ASC_NODE><ARG_OF_PERICENTER>294.7164</ARG_OF_PERICENTER><MEAN_ANOMALY>65.2438</MEAN_ANOMALY></meanElements><tleParameters><EPHEMERIS_TYPE>0</EPHEMERIS_TYPE><CLASSIFICATION_TYPE>U</CLASSIFICATION_TYPE><NORAD_CAT_ID>64501</NORAD_CAT_ID><ELEMENT_SET_NO>999</ELEMENT_SET_NO><REV_AT_EPOCH>872</REV_AT_EPOCH><BSTAR>.80343E-3</BSTAR><MEAN_MOTION_DOT>.14935E-3</MEAN_MOTION_DOT><MEAN_MOTION_DDOT>0</MEAN_MOTION_DDOT></tleParameters></data></segment></body></omm>
<omm id="CCSDS_OMM_VERS" version="2.0">
<header><CREATION_DATE/><ORIGINATOR/></header><body><segment><metadata><OBJECT_NAME>KUIPER-00041</OBJECT_NAME><OBJECT_ID>2025-134C</OBJECT_ID><CENTER_NAME>EARTH</CENTER_NAME><REF_FRAME>TEME</REF_FRAME><TIME_SYSTEM>UTC</TIME_SYSTEM><MEAN_ELEMENT_THEORY>SGP4</MEAN_ELEMENT_THEORY></metadata><data><meanElements><EPOCH>2025-08-11T14:00:01.000224</EPOCH><MEAN_MOTION>15.09184370</MEAN_MOTION><ECCENTRICITY>.0010033</ECCENTRICITY><INCLINATION>51.8790</INCLINATION><RA_OF_ASC_NODE>97.2421</RA_OF_ASC_NODE><ARG_OF_PERICENTER>292.4484</ARG_OF_PERICENTER><MEAN_ANOMALY>198.7167</MEAN_ANOMALY></meanElements><tleParameters><EPHEMERIS_TYPE>0</EPHEMERIS_TYPE><CLASSIFICATION_TYPE>U</CLASSIFICATION_TYPE><NORAD_CAT_ID>64502</NORAD_CAT_ID><ELEMENT_SET_NO>999</ELEMENT_SET_NO><REV_AT_EPOCH>542</REV_AT_EPOCH><BSTAR>-.73301E-1</BSTAR><MEAN_MOTION_DOT>-.1091754E-1</MEAN_MOTION_DOT><MEAN_MOTION_DDOT>0</MEAN_MOTION_DDOT></tleParameters></data></segment></body></omm>
<omm id="CCSDS_OMM_VERS" version="2.0">
<header><CREATION_DATE/><ORIGINATOR/></header><body><segment><metadata><OBJECT_NAME>KUIPER-00042</OBJECT_NAME><OBJECT_ID>2025-134D</OBJECT_ID><CENTER_NAME>EARTH</CENTER_NAME><REF_FRAME>TEME</REF_FRAME><TIME_SYSTEM>UTC</TIME_SYSTEM><MEAN_ELEMENT_THEORY>SGP4</MEAN_ELEMENT_THEORY></metadata><data><meanElements><EPOCH>2025-08-11T14:00:01.000224</EPOCH><MEAN_MOTION>15.16137433</MEAN_MOTION><ECCENTRICITY>.0011268</ECCENTRICITY><INCLINATION>51.8776</INCLINATION><RA_OF_ASC_NODE>95.6981</RA_OF_ASC_NODE><ARG_OF_PERICENTER>296.1498</ARG_OF_PERICENTER><MEAN_ANOMALY>294.8996</MEAN_ANOMALY></meanElements><tleParameters><EPHEMERIS_TYPE>0</EPHEMERIS_TYPE><CLASSIFICATION_TYPE>U</CLASSIFICATION_TYPE><NORAD_CAT_ID>64503</NORAD_CAT_ID><ELEMENT_SET_NO>999</ELEMENT_SET_NO><REV_AT_EPOCH>532</REV_AT_EPOCH><BSTAR>.92981E-3</BSTAR><MEAN_MOTION_DOT>.17915E-3</MEAN_MOTION_DOT><MEAN_MOTION_DDOT>0</MEAN_MOTION_DDOT></tleParameters></data></segment></body></omm>
<omm id="CCSDS_OMM_VERS" version="2.0">
<header><CREATION_DATE/><ORIGINATOR/></header><body><segment><metadata><OBJECT_NAME>KUIPER-00043</OBJECT_NAME><OBJECT_ID>2025-134E</OBJECT_ID><CENTER_NAME>EARTH</CENTER_NAME><REF_FRAME>TEME</REF_FRAME><TIME_SYSTEM>UTC</TIME_SYSTEM><MEAN_ELEMENT_THEORY>SGP4</MEAN_ELEMENT_THEORY></metadata><data><meanElements><EPOCH>2025-08-11T14:00:01.000224</EPOCH><MEAN_MOTION>15.33442141</MEAN_MOTION><ECCENTRICITY>.0008483</ECCENTRICITY><INCLINATION>51.8696</INCLINATION><RA_OF_ASC_NODE>94.3609</RA_OF_ASC_NODE><ARG_OF_PERICENTER>294.4956</ARG_OF_PERICENTER><MEAN_ANOMALY>240.0766</MEAN_ANOMALY></meanElements><tleParameters><EPHEMERIS_TYPE>0</EPHEMERIS_TYPE><CLASSIFICATION_TYPE>U</CLASSIFICATION_TYPE><NORAD_CAT_ID>64504</NORAD_CAT_ID><ELEMENT_SET_NO>999</ELEMENT_SET_NO><REV_AT_EPOCH>566</REV_AT_EPOCH><BSTAR>-.17082E-1</BSTAR><MEAN_MOTION_DOT>-.524443E-2</MEAN_MOTION_DOT><MEAN_MOTION_DDOT>0</MEAN_MOTION_DDOT></tleParameters></data></segment></body></omm>

</ndm>
